[
  {
    "OBJECT_NAME": "STARLINK-30086",
    "OBJECT_ID": "2023-056M",
    "EPOCH": "2025-05-17T09:44:47.847840",
    "MEAN_MOTION": 15.02538506,
    "ECCENTRICITY": 0.0001234,
    "INCLINATION": 43.0046,
    "RA_OF_ASC_NODE": 20.2558,
    "ARG_OF_PERICENTER": 275.1677,
    "MEAN_ANOMALY": 84.9024,
    "EPHEMERIS_TYPE": 0,
    "CLASSIFICATION_TYPE": "U",
    "NORAD_CAT_ID": 56297,
    "ELEMENT_SET_NO": 999,
    "REV_AT_EPOCH": 11545,
    "BSTAR": 6.5151e-05,
    "MEAN_MOTION_DOT": 6.77e-06,
    "MEAN_MOTION_DDOT": 0
  },
  {
    "OBJECT_NAME": "STARLINK-30109",
    "OBJECT_ID": "2023-056N",
    "EPOCH": "2025-05-17T01:55:45.344352",
    "MEAN_MOTION": 15.02532753,
    "ECCENTRICITY": 8.86e-05,
    "INCLINATION": 43.0038,
    "RA_OF_ASC_NODE": 22.1134,
    "ARG_OF_PERICENTER": 251.4099,
    "MEAN_ANOMALY": 108.6647,
    "EPHEMERIS_TYPE": 0,
    "CLASSIFICATION_TYPE": "U",
    "NORAD_CAT_ID": 56298,
    "ELEMENT_SET_NO": 999,
    "REV_AT_EPOCH": 11546,
    "BSTAR": -5.656e-06,
    "MEAN_MOTION_DOT": -2.8e-06,
    "MEAN_MOTION_DDOT": 0
  },
  {
    "OBJECT_NAME": "STARLINK-30108",
    "OBJECT_ID": "2023-056P",
    "EPOCH": "2025-05-17T21:52:48.253440",
    "MEAN_MOTION": 15.02538097,
    "ECCENTRICITY": 0.0001175,
    "INCLINATION": 43.0042,
    "RA_OF_ASC_NODE": 5.0382,
    "ARG_OF_PERICENTER": 279.1085,
    "MEAN_ANOMALY": 80.9624,
    "EPHEMERIS_TYPE": 0,
    "CLASSIFICATION_TYPE": "U",
    "NORAD_CAT_ID": 56299,
    "ELEMENT_SET_NO": 999,
    "REV_AT_EPOCH": 11507,
    "BSTAR": 7.2017e-05,
    "MEAN_MOTION_DOT": 7.69e-06,
    "MEAN_MOTION_DDOT": 0
  },
  {
    "OBJECT_NAME": "STARLINK-30104",
    "OBJECT_ID": "2023-056Q",
    "EPOCH": "2025-05-17T08:47:16.848672",
    "MEAN_MOTION": 15.02536564,
    "ECCENTRICITY": 9.06e-05,
    "INCLINATION": 43.0058,
    "RA_OF_ASC_NODE": 20.0404,
    "ARG_OF_PERICENTER": 270.571,
    "MEAN_ANOMALY": 89.5028,
    "EPHEMERIS_TYPE": 0,
    "CLASSIFICATION_TYPE": "U",
    "NORAD_CAT_ID": 56300,
    "ELEMENT_SET_NO": 999,
    "REV_AT_EPOCH": 11551,
    "BSTAR": 8.7418e-05,
    "MEAN_MOTION_DOT": 9.77e-06,
    "MEAN_MOTION_DDOT": 0
  },
  {
    "OBJECT_NAME": "STARLINK-30101",
    "OBJECT_ID": "2023-056R",
    "EPOCH": "2025-05-17T17:29:03.958656",
    "MEAN_MOTION": 15.02541216,
    "ECCENTRICITY": 0.0001204,
    "INCLINATION": 43.0076,
    "RA_OF_ASC_NODE": 18.4401,
    "ARG_OF_PERICENTER": 249.3401,
    "MEAN_ANOMALY": 110.7312,
    "EPHEMERIS_TYPE": 0,
    "CLASSIFICATION_TYPE": "U",
    "NORAD_CAT_ID": 56301,
    "ELEMENT_SET_NO": 999,
    "REV_AT_EPOCH": 11491,
    "BSTAR": -0.00010976,
    "MEAN_MOTION_DOT": -1.686e-05,
    "MEAN_MOTION_DDOT": 0
  },
  {
    "OBJECT_NAME": "STARLINK-30111",
    "OBJECT_ID": "2023-056S",
    "EPOCH": "2025-05-17T01:22:12.073152",
    "MEAN_MOTION": 15.02539222,
    "ECCENTRICITY": 0.0001176,
    "INCLINATION": 43.004,
    "RA_OF_ASC_NODE": 21.9388,
    "ARG_OF_PERICENTER": 269.8154,
    "MEAN_ANOMALY": 90.2553,
    "EPHEMERIS_TYPE": 0,
    "CLASSIFICATION_TYPE": "U",
    "NORAD_CAT_ID": 56302,
    "ELEMENT_SET_NO": 999,
    "REV_AT_EPOCH": 11480,
    "BSTAR": 3.3778e-05,
    "MEAN_MOTION_DOT": 2.53e-06,
    "MEAN_MOTION_DDOT": 0
  },
  {
    "OBJECT_NAME": "STARLINK-30099",
    "OBJECT_ID": "2023-056U",
    "EPOCH": "2025-05-17T09:16:01.668288",
    "MEAN_MOTION": 15.02535846,
    "ECCENTRICITY": 0.0001221,
    "INCLINATION": 43.0049,
    "RA_OF_ASC_NODE": 20.0954,
    "ARG_OF_PERICENTER": 261.629,
    "MEAN_ANOMALY": 98.4414,
    "EPHEMERIS_TYPE": 0,
    "CLASSIFICATION_TYPE": "U",
    "NORAD_CAT_ID": 56304,
    "ELEMENT_SET_NO": 999,
    "REV_AT_EPOCH": 11551,
    "BSTAR": 6.3314e-05,
    "MEAN_MOTION_DOT": 6.52e-06,
    "MEAN_MOTION_DDOT": 0
  },
  {
    "OBJECT_NAME": "STARLINK-30094",
    "OBJECT_ID": "2023-056V",
    "EPOCH": "2025-05-17T09:11:14.068608",
    "MEAN_MOTION": 15.02535798,
    "ECCENTRICITY": 0.0001034,
    "INCLINATION": 43.0033,
    "RA_OF_ASC_NODE": 20.0593,
    "ARG_OF_PERICENTER": 269.3418,
    "MEAN_ANOMALY": 90.7306,
    "EPHEMERIS_TYPE": 0,
    "CLASSIFICATION_TYPE": "U",
    "NORAD_CAT_ID": 56305,
    "ELEMENT_SET_NO": 999,
    "REV_AT_EPOCH": 11551,
    "BSTAR": -1.1014e-06,
    "MEAN_MOTION_DOT": -2.18e-06,
    "MEAN_MOTION_DDOT": 0
  },
  {
    "OBJECT_NAME": "STARLINK-30112",
    "OBJECT_ID": "2023-056W",
    "EPOCH": "2025-05-17T17:24:15.532128",
    "MEAN_MOTION": 15.02526138,
    "ECCENTRICITY": 0.0001174,
    "INCLINATION": 43.0025,
    "RA_OF_ASC_NODE": 18.3511,
    "ARG_OF_PERICENTER": 269.5401,
    "MEAN_ANOMALY": 90.5307,
    "EPHEMERIS_TYPE": 0,
    "CLASSIFICATION_TYPE": "U",
    "NORAD_CAT_ID": 56306,
    "ELEMENT_SET_NO": 999,
    "REV_AT_EPOCH": 11491,
    "BSTAR": 0.00017524,
    "MEAN_MOTION_DOT": 2.164e-05,
    "MEAN_MOTION_DDOT": 0
  },
  {
    "OBJECT_NAME": "STARLINK-6038",
    "OBJECT_ID": "2023-058A",
    "EPOCH": "2025-05-17T17:46:23.356704",
    "MEAN_MOTION": 15.0126073,
    "ECCENTRICITY": 0.0003859,
    "INCLINATION": 97.6558,
    "RA_OF_ASC_NODE": 139.7262,
    "ARG_OF_PERICENTER": 71.2622,
    "MEAN_ANOMALY": 288.9021,
    "EPHEMERIS_TYPE": 0,
    "CLASSIFICATION_TYPE": "U",
    "NORAD_CAT_ID": 56317,
    "ELEMENT_SET_NO": 999,
    "REV_AT_EPOCH": 11323,
    "BSTAR": 3.425e-05,
    "MEAN_MOTION_DOT": 3.81e-06,
    "MEAN_MOTION_DDOT": 0
  },
  {
    "OBJECT_NAME": "STARLINK-5954",
    "OBJECT_ID": "2023-058B",
    "EPOCH": "2025-05-17T20:53:00.185856",
    "MEAN_MOTION": 15.01251214,
    "ECCENTRICITY": 0.0003158,
    "INCLINATION": 97.6545,
    "RA_OF_ASC_NODE": 139.8606,
    "ARG_OF_PERICENTER": 65.0219,
    "MEAN_ANOMALY": 295.1333,
    "EPHEMERIS_TYPE": 0,
    "CLASSIFICATION_TYPE": "U",
    "NORAD_CAT_ID": 56318,
    "ELEMENT_SET_NO": 999,
    "REV_AT_EPOCH": 11325,
    "BSTAR": 3.8987e-05,
    "MEAN_MOTION_DOT": 4.42e-06,
    "MEAN_MOTION_DDOT": 0
  },
  {
    "OBJECT_NAME": "STARLINK-6039",
    "OBJECT_ID": "2023-058C",
    "EPOCH": "2025-05-17T11:14:28.302432",
    "MEAN_MOTION": 15.01261021,
    "ECCENTRICITY": 0.0003445,
    "INCLINATION": 97.6544,
    "RA_OF_ASC_NODE": 139.4678,
    "ARG_OF_PERICENTER": 64.2047,
    "MEAN_ANOMALY": 295.9532,
    "EPHEMERIS_TYPE": 0,
    "CLASSIFICATION_TYPE": "U",
    "NORAD_CAT_ID": 56319,
    "ELEMENT_SET_NO": 999,
    "REV_AT_EPOCH": 11333,
    "BSTAR": 5.2212e-06,
    "MEAN_MOTION_DOT": 8e-08,
    "MEAN_MOTION_DDOT": 0
  },
  {
    "OBJECT_NAME": "STARLINK-5988",
    "OBJECT_ID": "2023-058D",
    "EPOCH": "2025-05-17T11:22:49.278144",
    "MEAN_MOTION": 15.01255873,
    "ECCENTRICITY": 0.0003854,
    "INCLINATION": 97.6552,
    "RA_OF_ASC_NODE": 139.4624,
    "ARG_OF_PERICENTER": 77.794,
    "MEAN_ANOMALY": 282.3715,
    "EPHEMERIS_TYPE": 0,
    "CLASSIFICATION_TYPE": "U",
    "NORAD_CAT_ID": 56320,
    "ELEMENT_SET_NO": 999,
    "REV_AT_EPOCH": 11334,
    "BSTAR": 3.1813e-05,
    "MEAN_MOTION_DOT": 3.49e-06,
    "MEAN_MOTION_DDOT": 0
  },
  {
    "OBJECT_NAME": "STARLINK-5876",
    "OBJECT_ID": "2023-058E",
    "EPOCH": "2025-05-17T11:06:27.394848",
    "MEAN_MOTION": 15.01373394,
    "ECCENTRICITY": 0.0001221,
    "INCLINATION": 97.6522,
    "RA_OF_ASC_NODE": 139.4724,
    "ARG_OF_PERICENTER": 1.5968,
    "MEAN_ANOMALY": 358.526,
    "EPHEMERIS_TYPE": 0,
    "CLASSIFICATION_TYPE": "U",
    "NORAD_CAT_ID": 56321,
    "ELEMENT_SET_NO": 999,
    "REV_AT_EPOCH": 11333,
    "BSTAR": 0.017109,
    "MEAN_MOTION_DOT": 0.00227607,
    "MEAN_MOTION_DDOT": 0
  }
]