STARLINK-30086          
1 56297U 23056M   25137.40610935  .00000677  00000+0  65151-4 0  9992
2 56297  43.0046  20.2558 0001234 275.1677  84.9024 15.02538506115453
STARLINK-30109          
1 56298U 23056N   25137.08038593 -.00000280  00000+0 -56560-5 0  9998
2 56298  43.0038  22.1134 0000886 251.4099 108.6647 15.02532753115467
STARLINK-30108          
1 56299U 23056P   25137.91166960  .00000769  00000+0  72017-4 0  9995
2 56299  43.0042   5.0382 0001175 279.1085  80.9624 15.02538097115073
STARLINK-30104          
1 56300U 23056Q   25137.36616723  .00000977  00000+0  87418-4 0  9996
2 56300  43.0058  20.0404 0000906 270.5710  89.5028 15.02536564115515
STARLINK-30101          
1 56301U 23056R   25137.72851804 -.00001686  00000+0 -10976-3 0  9992
2 56301  43.0076  18.4401 0001204 249.3401 110.7312 15.02541216114913
STARLINK-30111          
1 56302U 23056S   25137.05708418  .00000253  00000+0  33778-4 0  9994
2 56302  43.0040  21.9388 0001176 269.8154  90.2553 15.02539222114809
STARLINK-30099          
1 56304U 23056U   25137.38613042  .00000652  00000+0  63314-4 0  9992
2 56304  43.0049  20.0954 0001221 261.6290  98.4414 15.02535846115514
STARLINK-30094          
1 56305U 23056V   25137.38280172 -.00000218  00000+0 -11014-5 0  9998
2 56305  43.0033  20.0593 0001034 269.3418  90.7306 15.02535798115517
STARLINK-30112          
1 56306U 23056W   25137.72517977  .00002164  00000+0  17524-3 0  9993
2 56306  43.0025  18.3511 0001174 269.5401  90.5307 15.02526138114918
STARLINK-6038           
1 56317U 23058A   25137.74054811  .00000381  00000+0  34250-4 0  9997
2 56317  97.6558 139.7262 0003859  71.2622 288.9021 15.01260730113234
STARLINK-5954           
1 56318U 23058B   25137.87014104  .00000442  00000+0  38987-4 0  9992
2 56318  97.6545 139.8606 0003158  65.0219 295.1333 15.01251214113254
STARLINK-6039           
1 56319U 23058C   25137.46838313  .00000008  00000+0  52212-5 0  9990
2 56319  97.6544 139.4678 0003445  64.2047 295.9532 15.01261021113333
STARLINK-5988           
1 56320U 23058D   25137.47418146  .00000349  00000+0  31813-4 0  9992
2 56320  97.6552 139.4624 0003854  77.7940 282.3715 15.01255873113342
STARLINK-5876           
1 56321U 23058E   25137.46281707  .00227607  00000+0  17109-1 0  9990
2 56321  97.6522 139.4724 0001221   1.5968 358.5260 15.01373394113331
